CHINASAT 9C             
1 64471U 25132B   25194.02766499  .00027582  00000+0  27292-2 0  9996
2 64471  27.7469  86.7894 7327275 193.3121 124.0251  2.24622183   526
STARLINK-34493          
1 64472U 25133A   25194.86387726 -.00116187  00000+0 -19808-2 0  9998
2 64472  53.1603 155.3235 0001759 168.0679 192.0372 15.51114049  4498
STARLINK-34492          
1 64473U 25133B   25194.91668981 -.01291208  00000+0 -24809-1 0  9995
2 64473  53.1605 155.0657 0001294  98.9616 198.0576 15.50262082  4494
STARLINK-34474          
1 64474U 25133C   25194.83334491 -.01692297  00000+0 -32372-1 0  9990
2 64474  53.1602 155.4604 0001345  82.6007 110.8179 15.50718358  4469
STARLINK-34523          
1 64475U 25133D   25194.91668981 -.01331541  00000+0 -25653-1 0  9990
2 64475  53.1606 155.0568 0001644 102.9272 197.9271 15.50274634  4475
STARLINK-34496          
1 64476U 25133E   25194.83334491 -.01730139  00000+0 -33161-1 0  9997
2 64476  53.1600 155.4510 0001640  90.3629 106.8891 15.50734381  4481
STARLINK-34375          
1 64477U 25133F   25194.83334491 -.01717512  00000+0 -32896-1 0  9992
2 64477  53.1599 155.4479 0001715  87.8328 111.3324 15.50728554  4480
STARLINK-34490          
1 64478U 25133G   25194.86147595 -.00113816  00000+0 -19387-2 0  9990
2 64478  53.1601 155.3075 0001586 157.9348 202.1731 15.51128117  4484
STARLINK-34528          
1 64479U 25133H   25194.91668981 -.01334832  00000+0 -25723-1 0  9998
2 64479  53.1609 155.0452 0001537 102.9660 203.6382 15.50275817  4478
STARLINK-34518          
1 64480U 25133J   25194.83334491 -.01724750  00000+0 -33046-1 0  9996
2 64480  53.1603 155.4355 0001683  89.6693 115.2451 15.50733355  4324
STARLINK-34526          
1 64481U 25133K   25194.83334491 -.01735456  00000+0 -33271-1 0  9992
2 64481  53.1601 155.4315 0001592  88.0716 118.7599 15.50738410  4370
STARLINK-34527          
1 64482U 25133L   25194.91668981 -.01334884  00000+0 -25724-1 0  9990
2 64482  53.1605 155.0288 0001596 103.7869 210.4837 15.50275412  4494
STARLINK-34420          
1 64483U 25133M   25194.83334491 -.01747172  00000+0 -33512-1 0  9990
2 64483  53.1601 155.4237 0001637  89.8848 120.7791 15.50747204  4480
STARLINK-34509          
1 64484U 25133N   25194.91668981 -.01294443  00000+0 -24879-1 0  9998
2 64484  53.1604 155.0208 0001221 108.1933 209.9127 15.50261137  4497
STARLINK-34409          
1 64485U 25133P   25194.83334491 -.01693134  00000+0 -32391-1 0  9994
2 64485  53.1600 155.4158 0001342  89.7664 124.7378 15.50717426  4489
STARLINK-34520          
1 64486U 25133Q   25194.83334491 -.01695245  00000+0 -32433-1 0  9997
2 64486  53.1600 155.4117 0001401  91.0841 125.3360 15.50719600  4488
STARLINK-34477          
1 64487U 25133R   25194.85856442  .00096999  00000+0  15645-2 0  9990
2 64487  53.1601 155.2865 0004708  37.0914 323.0421 15.52142389  4483
STARLINK-34217          
1 64488U 25133S   25194.91668981 -.01275390  00000+0 -24493-1 0  9994
2 64488  53.1607 155.0044 0001404 112.1968 213.5958 15.50239454  4386
STARLINK-34307          
1 64489U 25133T   25194.83334491 -.01697754  00000+0 -32486-1 0  9995
2 64489  53.1600 155.3995 0001372  92.3307 129.8402 15.50720457  4468
STARLINK-34505          
1 64490U 25133U   25194.83334491 -.01684053  00000+0 -32196-1 0  9993
2 64490  53.1602 155.3948 0001580  84.9091 139.1799 15.50716081  4469
STARLINK-34530          
1 64491U 25133V   25194.83334491 -.01689007  00000+0 -32297-1 0  9990
2 64491  53.1600 155.3912 0001556  85.2601 140.7428 15.50720467  4463
STARLINK-34522          
1 64492U 25133W   25194.83334491 -.01680349  00000+0 -32120-1 0  9996
2 64492  53.1603 155.3873 0001563  86.3208 141.6028 15.50713572  4483
STARLINK-34462          
1 64493U 25133X   25194.83334491 -.01678005  00000+0 -32073-1 0  9990
2 64493  53.1605 155.3831 0001549  86.4278 143.4147 15.50711081  4487
STARLINK-34226          
1 64494U 25133Y   25194.83334491 -.01683292  00000+0 -32178-1 0  9991
2 64494  53.1600 155.3798 0001534  84.8617 146.8897 15.50718021  4321
STARLINK-34364          
1 64495U 25133Z   25194.83334491 -.01682776  00000+0 -32170-1 0  9990
2 64495  53.1600 155.3711 0001540  89.1885 146.4009 15.50715352  4481
STARLINK-34268          
1 64496U 25133AA  25194.83334491 -.01678398  00000+0 -32081-1 0  9997
2 64496  53.1601 155.3753 0001513  84.9201 148.7546 15.50711743  4485
STARLINK-34363          
1 64497U 25133AB  25194.83334491 -.01650065  00000+0 -31506-1 0  9990
2 64497  53.1601 155.3670 0001699  95.7524 141.7768 15.50684899  4487
STARLINK-34427          
1 64498U 25133AC  25194.83334491 -.01674624  00000+0 -32002-1 0  9990
2 64498  53.1602 155.3633 0001604  88.5856 150.8390 15.50709587  4486
KUIPER-00039            
1 64500U 25134A   25194.50943029  .00018155  00000+0  54116-3 0  9992
2 64500  51.8676 234.3841 0007638 186.0002 174.0893 15.34699313  4321
KUIPER-00040            
1 64501U 25134B   25194.52111134  .00017780  00000+0  54485-3 0  9991
2 64501  51.8647 234.4560 0011041 198.3370 161.7218 15.33809499  4327
KUIPER-00041            
1 64502U 25134C   25194.51567126  .00008264  00000+0  25755-3 0  9992
2 64502  51.8675 234.4249 0009674 193.5744 166.4982 15.34085418  4322
KUIPER-00042            
1 64503U 25134D   25194.83911115  .00015626  00000+0  47140-3 0  9991
2 64503  51.8648 232.8379 0008933 187.8460 172.2387 15.34427518  3916
KUIPER-00043            
1 64504U 25134E   25194.83598028  .00016300  00000+0  48836-3 0  9999
2 64504  51.8687 232.8226 0008164 182.1822 177.9129 15.34615987  4294
KUIPER-00044            
1 64505U 25134F   25194.51865876 -.00014068  00000+0 -41016-3 0  9997
2 64505  51.8631 234.4377 0010953 189.2521 170.8264 15.33970389  4327
KUIPER-00046            
1 64506U 25134G   25194.83997406  .00017106  00000+0  51522-3 0  9995
2 64506  51.8662 232.8458 0009763 186.4389 173.6473 15.34398634  3917
KUIPER-00047            
1 64507U 25134H   25194.51827485  .00015392  00000+0  46985-3 0  9992
2 64507  51.8620 234.4335 0010447 196.6869 163.3774 15.34052732  4323
KUIPER-00048            
1 64508U 25134J   25194.42821065  .00021424  00000+0  61061-3 0  9996
2 64508  51.8763 234.5990 0003222 168.6416 191.4644 15.36016603  4316
KUIPER-00049            
1 64509U 25134K   25194.83073937  .00016300  00000+0  48119-3 0  9995
2 64509  51.8709 232.7922 0006859 179.3033 180.7963 15.35091705  4359
KUIPER-00050            
1 64510U 25134L   25194.83255957  .00015671  00000+0  46532-3 0  9998
2 64510  51.8718 232.8039 0007506 180.8241 179.2733 15.34936794  3913
KUIPER-00051            
1 64511U 25134M   25194.82619699  .00026367  00000+0  76315-3 0  9991
2 64511  51.8729 232.7646 0005126 171.9331 188.1738 15.35402653  4295
KUIPER-00052            
1 64512U 25134N   25194.81794769  .00023034  00000+0  61195-3 0  9991
2 64512  51.8750 232.7114 0003608 185.8051 174.2895 15.38155944  3915
KUIPER-00053            
1 64513U 25134P   25194.81469885  .00018429  00000+0  52420-3 0  9993
2 64513  51.8762 232.6882 0002128 155.5001 204.6086 15.36183053  3915
KUIPER-00054            
1 64514U 25134Q   25194.81762332  .00023818  00000+0  67695-3 0  9995
2 64514  51.8752 232.7099 0002943 154.3723 205.7410 15.36039810  4318
KUIPER-00055            
1 64515U 25134R   25194.48371975  .00021475  00000+0  60063-3 0  9997
2 64515  51.8762 234.2232 0000812  76.2724 283.8353 15.36607136  4328
KUIPER-00056            
1 64516U 25134S   25194.82025914  .00030643  00000+0  87108-3 0  9991
2 64516  51.8732 232.7266 0003523 167.1817 192.9259 15.35893404  3914
KUIPER-00057            
1 64517U 25134T   25194.83065921  .00018210  00000+0  53860-3 0  9999
2 64517  51.8696 232.7905 0006677 178.8768 181.2233 15.34948290  4020
KUIPER-00058            
1 64518U 25134U   25194.82499565  .00017063  00000+0  49710-3 0  9998
2 64518  51.8718 232.7562 0004587 177.1229 182.9784 15.35483734  3911
KUIPER-00059            
1 64519U 25134V   25194.48516724  .00016895  00000+0  47493-3 0  9996
2 64519  51.8766 234.2279 0001303 106.5455 253.5675 15.36616886  4324
KUIPER-00060            
1 64520U 25134W   25194.81328192  .00022685  00000+0  63897-3 0  9995
2 64520  51.8758 232.6804 0002311 122.9151 237.2058 15.36351324  3919
KUIPER-00061            
1 64521U 25134X   25194.82698144  .00014951  00000+0  44012-3 0  9999
2 64521  51.8738 232.7697 0005443 163.8900 196.2259 15.35260810  3919
KUIPER-00062            
1 64522U 25134Y   25194.82261307  .00016822  00000+0  48900-3 0  9996
2 64522  51.8743 232.7418 0004703 164.5547 195.5584 15.35563982  3919
KUIPER-00063            
1 64523U 25134Z   25194.81599692  .00019563  00000+0  55552-3 0  9993
2 64523  51.8743 232.6995 0002509 146.4612 213.6533 15.36193525  3912
KUIPER-00064            
1 64524U 25134AA  25194.48376198 -.00155287  00000+0 -43771-2 0  9996
2 64524  51.8763 234.2215 0004354  62.2216 297.9211 15.36443170  4321
KUIPER-00065            
1 64525U 25134AB  25194.51165467  .00017623  00000+0  52864-3 0  9999
2 64525  51.8700 234.4012 0008446 182.6645 177.4296 15.34516708  4319
KUIPER-00066            
1 64526U 25134AC  25194.48691064  .00022407  00000+0  62943-3 0  9998
2 64526  51.8756 234.2452 0001499 109.2950 250.8199 15.36444151  4325
2025-131D               
1 64527U 25131D   25194.72061013 -.00000267  00000+0  00000+0 0  9991
2 64527   1.0030 280.6769 3659034 174.1032 199.8307  1.00076437   236
AXIOM-4 (AX-4)          
1 64593U 25136A   25194.43411487  .00010152  00000+0  18227-3 0  9998
2 64593  51.6340 176.9702 0002675   6.8375 353.2650 15.50520436  2578
STARLINK-34280          
1 64594U 25137A   25194.87918557  .00196390  00000+0  13123-2 0  9996
2 64594  53.1577  18.6015 0000547 142.8557 217.2501 15.74222224  3975
STARLINK-34517          
1 64595U 25137B   25194.58335648 -.00158179  00000+0 -10928-2 0  9994
2 64595  53.1582  20.0643 0001076 103.4636  21.1096 15.74258243  3954
